KUZGTU 1 (RS47S)        
1 57217U 23091AV  26199.81479142  .00006199  00000+0  21249-3 0  9995
2 57217  97.5042 264.6293 0009696 353.0437   7.0667 15.30516833169218
SONATE-2                
1 59112U 24043Q   26198.93003248  .00025616  00000+0  30609-3 0  9996
2 59112  97.5566 351.2719 0006759  98.0994 262.1029 15.60980545132687
MESAT1                  
1 60209U 24125G   26199.50106527  .00041462  00000+0  39338-3 0  9999
2 60209  97.2234  57.7719 0010849 102.6251 257.6223 15.66729735114465
OOV-CUBE (TUBSAT-30)    
1 60240U 24128F   26199.32762964  .00000912  00000+0  82295-4 0  9996
2 60240  61.9941 116.9785 0040721 140.6907 219.7153 15.02880941110796
COLIBRI-S (RS67S)       
1 61746U 24199M   26199.85805578  .00012699  00000+0  23639-3 0  9994
2 61746  97.2938  74.0220 0009381 149.9130 210.2662 15.48947260142313
HORS 3 (RS81S)          
1 61753U 24199U   26199.85699861  .00021817  00000+0  30210-3 0  9993
2 61753  97.2921  76.3712 0007524 145.0075 215.1677 15.57082832142489
HORS 4 (RS82S)          
1 61754U 24199V   26199.84173102  .00034847  00000+0  38959-3 0  9993
2 61754  97.2863  77.7806 0007335 138.2816 221.9003 15.62642145142585
SIT-2086                
1 61764U 24199AF  26199.80939170  .00023720  00000+0  35179-3 0  9994
2 61764  97.2879  76.6890 0008494 133.8657 226.3300 15.55191565139341
HYPERVIEW 1G (RS66S)    
1 61772U 24199AP  26199.77452970  .00180366  00000+0  70280-3 0  9999
2 61772  97.2779  81.3217 0008278 140.9208 219.2663 15.86574386139664
ALTAIR (RS65S)          
1 61779U 24199AW  26199.87651454  .00005996  00000+0  16459-3 0  9998
2 61779  97.2985  69.0237 0012438 183.0897 177.0274 15.37553473141987
ASRTU-1 (AO-123)        
1 61781U 24199AY  26199.82836845  .00004089  00000+0  11833-3 0  9998
2 61781  97.2956  68.2161 0013410 187.1866 172.9188 15.36084423138782
SAMSAT-IONOSPHERE (RS7*)
1 61784U 24199BB  26199.83080429  .00032636  00000+0  39810-3 0  9995
2 61784  97.2886  76.5194 0009606 148.9251 211.2577 15.60361287142495
RTU MIREA 1 (RS51S)     
1 61785U 24199BC  26199.84147822  .00042260  00000+0  43679-3 0  9990
2 61785  97.2871  77.5428 0009644 144.2125 215.9783 15.64589848139419
TEVEL2-4                
1 63213U 25052D   26199.66508882  .00010338  00000+0  30055-3 0  9999
2 63213  97.3855  96.1261 0003268  45.1827 314.9681 15.35641020 74948
TEVEL2-5                
1 63214U 25052E   26199.68928465  .00009347  00000+0  27363-3 0  9991
2 63214  97.3856  96.0888 0003253  46.6134 313.5380 15.35452998 74940
TEVEL2-6                
1 63215U 25052F   26199.70233986  .00009608  00000+0  28152-3 0  9999
2 63215  97.3856  96.0869 0003345  48.8553 311.2979 15.35416881 74941
TEVEL2-1                
1 63217U 25052H   26199.22116709  .00009517  00000+0  28401-3 0  9997
2 63217  97.3830  95.1910 0004044  53.7107 306.4510 15.34835684 74851
TEVEL2-3                
1 63218U 25052J   26199.27979625  .00009943  00000+0  29602-3 0  9994
2 63218  97.3839  95.2758 0003778  55.7421 304.4179 15.34900151 74868
TEVEL2-2                
1 63219U 25052K   26199.28646794  .00009641  00000+0  28757-3 0  9999
2 63219  97.3833  95.2592 0004077  53.6322 306.5297 15.34848337 74860
OTP-2                   
1 63235U 25052AB  26199.21431650  .00003324  00000+0  13858-3 0  9991
2 63235  97.3825  91.1834 0008022  62.7166 297.4887 15.24359126 74599
TEVEL2-9                
1 63237U 25052AD  26199.69657294  .00008654  00000+0  27545-3 0  9998
2 63237  97.3893  94.9749 0007371  46.9619 313.2239 15.32797358 74854
TEVEL2-7                
1 63238U 25052AE  26199.67848182  .00008389  00000+0  26975-3 0  9996
2 63238  97.3894  94.8589 0007496  47.1803 313.0068 15.32478825 74845
TEVEL2-8                
1 63239U 25052AF  26199.68703718  .00008343  00000+0  26842-3 0  9996
2 63239  97.3898  94.8441 0007519  48.0936 312.0946 15.32464515 74845
INNOSAT 16 (RS92S7)     
1 64878U 25155C   26199.87842028  .00003121  00000+0  12492-3 0  9994
2 64878  97.4588 166.9162 0012403  77.4349 282.8275 15.25761749 85500
GEOSCAN 6 (RS92S6)      
1 64879U 25155D   26199.89218231  .00005881  00000+0  20059-3 0  9993
2 64879  97.4579 168.5835 0009831  71.7284 288.5026 15.30697544 85618
GEOSCAN 1 (RS92S1)      
1 64880U 25155E   26199.88166767  .00006059  00000+0  20247-3 0  9997
2 64880  97.4576 168.7497 0009756  72.0133 288.2170 15.31348233 85623
239ALFEROV (RS61S)      
1 64881U 25155F   26199.86922561  .00008703  00000+0  26889-3 0  9994
2 64881  97.4574 169.4097 0009485  72.0004 288.2271 15.33733367 85666
GEOSCAN 2 (RS92S2)      
1 64890U 25155Q   26199.86992131  .00006263  00000+0  20757-3 0  9991
2 64890  97.4575 168.9026 0008867  62.3742 297.8398 15.31606221 85636
GEOSCAN 5 (RS92S5)      
1 64891U 25155R   26199.85181487  .00008425  00000+0  25797-3 0  9996
2 64891  97.4567 169.5414 0008522  76.9162 283.3031 15.34036788 85677
GEOSCAN 4 (RS92S4)      
1 64892U 25155S   26199.83267606  .00008441  00000+0  25710-3 0  9996
2 64892  97.4572 169.5801 0008416  77.2151 283.0032 15.34206414 85671
