OBJECT_NAME,OBJECT_ID,EPOCH,MEAN_MOTION,ECCENTRICITY,INCLINATION,RA_OF_ASC_NODE,ARG_OF_PERICENTER,MEAN_ANOMALY,EPHEMERIS_TYPE,CLASSIFICATION_TYPE,NORAD_CAT_ID,ELEMENT_SET_NO,REV_AT_EPOCH,BSTAR,MEAN_MOTION_DOT,MEAN_MOTION_DDOT
KUZGTU 1 (RS47S),2023-091AV,2026-07-18T19:33:17.978688,15.30516833,.0009696,97.5042,264.6293,353.0437,7.0667,0,U,57217,999,16921,.21249E-3,.6199E-4,0
SONATE-2,2024-043Q,2026-07-17T22:19:14.806272,15.60980545,.00067591,97.5566,351.2719,98.0994,262.1029,0,U,59112,999,13268,.30609144E-3,.25616E-3,0
MESAT1,2024-125G,2026-07-18T12:01:32.039328,15.66729735,.00108494,97.2234,57.7719,102.6251,257.6223,0,U,60209,999,11446,.39338041E-3,.41462E-3,0
OOV-CUBE (TUBSAT-30),2024-128F,2026-07-18T07:51:47.200896,15.02880941,.00407214,61.9941,116.9785,140.6907,219.7153,0,U,60240,999,11079,.8229489E-4,.912E-5,0
COLIBRI-S (RS67S),2024-199M,2026-07-18T20:35:36.019392,15.48947260,.0009381,97.2938,74.0220,149.9130,210.2662,0,U,61746,999,14231,.23639E-3,.12699E-3,0
HORS 3 (RS81S),2024-199U,2026-07-18T20:34:04.679904,15.57082832,.0007524,97.2921,76.3712,145.0075,215.1677,0,U,61753,999,14248,.3021E-3,.21817E-3,0
HORS 4 (RS82S),2024-199V,2026-07-18T20:12:05.560128,15.62642145,.0007335,97.2863,77.7806,138.2816,221.9003,0,U,61754,999,14258,.38959E-3,.34847E-3,0
SIT-2086,2024-199AF,2026-07-18T19:25:31.442880,15.55191565,.0008494,97.2879,76.6890,133.8657,226.3300,0,U,61764,999,13934,.35179E-3,.2372E-3,0
HYPERVIEW 1G (RS66S),2024-199AP,2026-07-18T18:35:19.366080,15.86574386,.0008278,97.2779,81.3217,140.9208,219.2663,0,U,61772,999,13966,.7028E-3,.180366E-2,0
ALTAIR (RS65S),2024-199AW,2026-07-18T21:02:10.856256,15.37553473,.0012438,97.2985,69.0237,183.0897,177.0274,0,U,61779,999,14198,.16459E-3,.5996E-4,0
ASRTU-1 (AO-123),2024-199AY,2026-07-18T19:52:51.034080,15.36084423,.001341,97.2956,68.2161,187.1866,172.9188,0,U,61781,999,13878,.11833E-3,.4089E-4,0
SAMSAT-IONOSPHERE (RS75S),2024-199BB,2026-07-18T19:56:21.490656,15.60361287,.0009606,97.2886,76.5194,148.9251,211.2577,0,U,61784,999,14249,.3981E-3,.32636E-3,0
RTU MIREA 1 (RS51S),2024-199BC,2026-07-18T20:11:43.718208,15.64589848,.0009644,97.2871,77.5428,144.2125,215.9783,0,U,61785,999,13941,.43679E-3,.4226E-3,0
TEVEL2-4,2025-052D,2026-07-18T15:57:43.674048,15.35641020,.0003268,97.3855,96.1261,45.1827,314.9681,0,U,63213,999,7494,.30055E-3,.10338E-3,0
TEVEL2-5,2025-052E,2026-07-18T16:32:34.193760,15.35452998,.0003253,97.3856,96.0888,46.6134,313.5380,0,U,63214,999,7494,.27363E-3,.9347E-4,0
TEVEL2-6,2025-052F,2026-07-18T16:51:22.163904,15.35416881,.0003345,97.3856,96.0869,48.8553,311.2979,0,U,63215,999,7494,.28152E-3,.9608E-4,0
TEVEL2-1,2025-052H,2026-07-18T05:18:28.836576,15.34835684,.0004044,97.3830,95.1910,53.7107,306.4510,0,U,63217,999,7485,.28401311E-3,.9517E-4,0
TEVEL2-3,2025-052J,2026-07-18T06:42:54.396000,15.34900151,.00037787,97.3839,95.2758,55.7421,304.4179,0,U,63218,999,7486,.296017E-3,.9943E-4,0
TEVEL2-2,2025-052K,2026-07-18T06:52:30.830016,15.34848337,.00040779,97.3833,95.2592,53.6322,306.5297,0,U,63219,999,7486,.28756579E-3,.9641E-4,0
OTP-2,2025-052AB,2026-07-18T05:08:36.945600,15.24359126,.00080222,97.3825,91.1834,62.7166,297.4887,0,U,63235,999,7459,.13858363E-3,.3324E-4,0
TEVEL2-9,2025-052AD,2026-07-18T16:43:03.902016,15.32797358,.0007371,97.3893,94.9749,46.9619,313.2239,0,U,63237,999,7485,.27545E-3,.8654E-4,0
TEVEL2-7,2025-052AE,2026-07-18T16:17:00.829248,15.32478825,.0007496,97.3894,94.8589,47.1803,313.0068,0,U,63238,999,7484,.26975E-3,.8389E-4,0
TEVEL2-8,2025-052AF,2026-07-18T16:29:20.012352,15.32464515,.0007519,97.3898,94.8441,48.0936,312.0946,0,U,63239,999,7484,.26842E-3,.8343E-4,0
INNOSAT 16 (RS92S7),2025-155C,2026-07-18T21:04:55.512192,15.25761749,.0012403,97.4588,166.9162,77.4349,282.8275,0,U,64878,999,8550,.12492E-3,.3121E-4,0
GEOSCAN 6 (RS92S6),2025-155D,2026-07-18T21:24:44.551584,15.30697544,.0009831,97.4579,168.5835,71.7284,288.5026,0,U,64879,999,8561,.20059E-3,.5881E-4,0
GEOSCAN 1 (RS92S1),2025-155E,2026-07-18T21:09:36.086688,15.31348233,.0009756,97.4576,168.7497,72.0133,288.2170,0,U,64880,999,8562,.20247E-3,.6059E-4,0
239ALFEROV (RS61S),2025-155F,2026-07-18T20:51:41.092704,15.33733367,.0009485,97.4574,169.4097,72.0004,288.2271,0,U,64881,999,8566,.26889E-3,.8703E-4,0
GEOSCAN 2 (RS92S2),2025-155Q,2026-07-18T20:52:41.201184,15.31606221,.0008867,97.4575,168.9026,62.3742,297.8398,0,U,64890,999,8563,.20757E-3,.6263E-4,0
GEOSCAN 5 (RS92S5),2025-155R,2026-07-18T20:26:36.804768,15.34036788,.0008522,97.4567,169.5414,76.9162,283.3031,0,U,64891,999,8567,.25797E-3,.8425E-4,0
GEOSCAN 4 (RS92S4),2025-155S,2026-07-18T19:59:03.211584,15.34206414,.0008416,97.4572,169.5801,77.2151,283.0032,0,U,64892,999,8567,.2571E-3,.8441E-4,0
